satname,norad_id,inclination_deg,eccentricity,mean_motion_rev_per_day,perigee_km,apogee_km,l1,l2
STARLINK-1308,45419,53.0524,0.0001332,15.06423584,546.2168305178693,548.061724118148,1 45419U 20019BM  25269.18120955  .00023829  00000+0  16122-2 0  9997,2 45419  53.0524 185.1280 0001332  78.3109 281.8029 15.06423584304674
STARLINK-1329,45531,53.0533,0.0001336,15.06402476,546.2787438117739,548.129194918788,1 45531U 20025A   25269.01718720  .00005417  00000+0  38227-3 0  9998,2 45531  53.0533 125.8616 0001336  87.1694 272.9448 15.06402476300279
STARLINK-1338,45532,53.0522,0.0001272,15.06404634,546.3164529020924,548.0782579621145,1 45532U 20025B   25269.02823732  .00007803  00000+0  54206-3 0  9996,2 45532  53.0522 125.8113 0001272  88.1890 271.9244 15.06404634300279
STARLINK-1350,45535,53.0732,0.0002438,15.31173317,470.6403207705289,473.9805989519582,1 45535U 20025E   25269.18514953  .00017375  00000+0  57970-3 0  9994,2 45535  53.0732  82.8908 0002438 128.0248 232.0973 15.31173317300912
STARLINK-1362,45538,53.0526,0.0001469,15.06401887,546.1884417075089,548.2231074146757,1 45538U 20025H   25268.99409480  .00009356  00000+0  64610-3 0  9992,2 45538  53.0526 125.6841 0001469  93.8682 266.2475 15.06401887300275
STARLINK-1368,45540,53.0526,0.0001283,15.06390603,546.3518326244775,548.1288844546789,1 45540U 20025K   25268.86606308  .00011163  00000+0  76732-3 0  9996,2 45540  53.0526 126.5400 0001283  76.5020 283.6112 15.06390603300248
STARLINK-1371,45542,53.0543,0.0001359,15.06400012,546.2703662959802,548.1526760240322,1 45542U 20025M   25268.83656861  .00002603  00000+0  19359-3 0  9995,2 45542  53.0543 126.6788 0001359  77.6380 282.4761 15.06400012300247
STARLINK-1372,45543,53.0526,0.0001292,15.06403054,546.3074440595801,548.096951708314,1 45543U 20025N   25269.00612314  .00005627  00000+0  39631-3 0  9995,2 45543  53.0526 125.9101 0001292  94.9125 265.2011 15.06403054299361
STARLINK-1373,45544,53.0528,0.0001323,15.06405735,546.2777597562408,548.1102023338253,1 45544U 20025P   25269.02455234  .00009198  00000+0  63551-3 0  9999,2 45544  53.0528 125.8301 0001323  98.3989 261.7150 15.06405735300272
STARLINK-1294,45551,53.0514,0.0004898,15.5290816,404.91620736582536,411.5641424463638,1 45551U 20025W   25269.25003472  .00228402  00000+0  35145-2 0  9993,2 45551  53.0514  70.5549 0004898 253.8452 116.7516 15.52908160  5951
STARLINK-1323,45553,53.0356,0.0003607,15.919801,294.33469128755223,299.14994922918777,1 45553U 20025Y   25269.25003472  .00365105  61776-4  10847-2 0  9991,2 45553  53.0356  51.9847 0003607  73.0524 295.7665 15.91980100  6063
STARLINK-1325,45554,53.0608,0.0003638,15.46856657,423.4527915371318,428.40342931147643,1 45554U 20025Z   25268.74528540  .00102385  00000+0  19871-2 0  9996,2 45554  53.0608  64.9423 0003638 349.7276  10.3655 15.46856657301112
STARLINK-1327,45555,53.0545,0.0001174,15.06415616,546.350667258951,547.9767278627387,1 45555U 20025AA  25268.73149611  .00001555  00000+0  12323-3 0  9997,2 45555  53.0545 107.1383 0001174  84.3302 275.7821 15.06415616300509
STARLINK-1336,45557,53.0387,0.0003299,15.8762266,306.7440618475039,311.15620193712675,1 45557U 20025AC  25269.25003472  .00383168  00000+0  13490-2 0  9999,2 45557  53.0387  57.6956 0003299 121.8239 282.1288 15.87622660  5998
STARLINK-1342,45558,53.0436,0.0001474,15.99035173,276.11346709074405,278.07542932167416,1 45558U 20025AD  25269.25003472  .00526851  13065-3  10664-2 0  9997,2 45558  53.0436  53.8945 0001474  33.1542 250.0987 15.99035173  6064
STARLINK-1356,45564,53.0526,0.0001271,15.06406785,546.3105538098744,548.0709721272224,1 45564U 20025AK  25268.80155106  .00002221  00000+0  16790-3 0  9994,2 45564  53.0526 106.8297 0001271  93.3185 266.7950 15.06406785300516
STARLINK-1357,45565,53.0639,0.0008375,15.25927429,482.2515621133498,493.75234486044064,1 45565U 20025AL  25269.23040908  .00092418  00000+0  35211-2 0  9991,2 45565  53.0639  95.5665 0008375 134.7539 225.4141 15.25927429300710
STARLINK-1361,45567,53.0528,0.0001374,15.06414299,546.2161970389252,548.1192707798036,1 45567U 20025AN  25268.81998373  .00001477  00000+0  11800-3 0  9998,2 45567  53.0528 106.7480 0001374  79.4681 280.6463 15.06414299300528
STARLINK-1363,45568,53.0545,0.0001348,15.06401084,546.2746990986307,548.1417721741591,1 45568U 20025AP  25268.76841096  .00000292  00000+0  38505-4 0  9998,2 45568  53.0545 107.2199 0001348  84.2774 275.8369 15.06401084300506
STARLINK-1366,45569,53.0541,0.0001509,15.06397029,546.1756271688973,548.2657001117841,1 45569U 20025AQ  25268.95637094  .00001061  00000+0  90102-4 0  9997,2 45569  53.0541 106.1343 0001509  91.7041 268.4121 15.06397029300531
STARLINK-1376,45570,53.0531,0.0001236,15.06393839,546.3744651646311,548.0864159959428,1 45570U 20025AR  25268.81628883 -.00003125  00000+0 -19104-3 0  9997,2 45570  53.0531 106.7631 0001236  71.4740 288.6383 15.06393839300513
STARLINK-1320,45572,53.062,0.0007712,15.3656391,451.00849097708215,461.54989451277197,1 45572U 20025AT  25269.14794131  .00128221  00000+0  34891-2 0  9998,2 45572  53.0620  56.8948 0007712 205.8937 154.1680 15.36563910301268
STARLINK-1321,45573,53.0535,0.0001349,15.06407486,546.2543880960739,548.1228409468713,1 45573U 20025AU  25268.80247850  .00003533  00000+0  25591-3 0  9998,2 45573  53.0535  96.8251 0001349  85.1034 275.0109 15.06407486300352
STARLINK-1328,45576,53.0544,0.0003055,15.56258676,396.42601832589844,400.5665412598519,1 45576U 20025AX  25269.25003472  .00206371  00000+0  28187-2 0  9999,2 45576  53.0544  85.1050 0003055 233.9113  24.8805 15.56258676  5805
STARLINK-1331,45578,53.0535,0.0001173,15.06405093,546.383607115903,548.0082902256618,1 45578U 20025AZ  25268.84670579  .00001812  00000+0  14050-3 0  9991,2 45578  53.0535  96.6269 0001173  89.3105 270.8019 15.06405093300674
STARLINK-1333,45580,53.0516,0.0001236,15.06405549,546.3385801249688,548.0505220844016,1 45580U 20025BB  25269.25124654  .00001389  00000+0  11208-3 0  9999,2 45580  53.0516 104.8114 0001236  87.2810 272.8321 15.06405549300581
STARLINK-1335,45581,53.0533,0.0001395,15.06401818,546.2399006891692,548.1720713822733,1 45581U 20025BC  25268.72506964  .00002605  00000+0  19369-3 0  9997,2 45581  53.0533  97.1732 0001395  92.1505 267.9643 15.06401818300647
STARLINK-1337,45582,53.0536,0.0001351,15.06386949,546.315937668237,548.1871776565176,1 45582U 20025BD  25268.94622353 -.00002866  00000+0 -17364-3 0  9997,2 45582  53.0536  96.1806 0001351  84.6996 275.4147 15.06386949300677
STARLINK-1347,45586,53.0586,0.0007219,15.2523054,485.1350782686559,495.0514291089321,1 45586U 20025BH  25268.88344471  .00099720  00000+0  38756-2 0  9996,2 45586  53.0586  87.4946 0007219 140.0800 220.0729 15.25230540300784
STARLINK-1360,45588,53.0504,0.0003715,15.67384666,363.8836000964002,368.8947830567413,1 45588U 20025BK  25268.58000108  .00099240  00000+0  89527-3 0  9991,2 45588  53.0504  18.6617 0003715 357.0981   3.0012 15.67384666301739
STARLINK-1364,45589,53.0551,0.0001374,15.06402458,546.2524826757672,548.1555663893096,1 45589U 20025BL  25268.94992216  .00002556  00000+0  19039-3 0  9997,2 45589  53.0551  96.1667 0001374  90.9579 269.1567 15.06402458300678
STARLINK-1365,45590,53.0522,0.0001378,15.06404484,546.2435040206528,548.1521262957112,1 45590U 20025BM  25268.83288517  .00006917  00000+0  48271-3 0  9994,2 45590  53.0522 126.6908 0001378  85.6031 274.5116 15.06404484300258
STARLINK-1443,45660,53.0546,0.0001273,15.06406852,546.3089634266626,548.0721518228338,1 45660U 20035D   25268.88448308  .00001559  00000+0  12350-3 0  9990,2 45660  53.0546  86.4590 0001273  89.7028 270.4107 15.06406852293894
STARLINK-1446,45663,53.0284,0.0005368,15.29962201,472.2459257513692,479.60444691461544,1 45663U 20035G   25268.69534526  .00032573  00000+0  11148-2 0  9993,2 45663  53.0284  56.6569 0005368 149.2486 210.8829 15.29962201294294
STARLINK-1448,45665,53.0543,0.000165,15.06392603,546.0915425179364,548.3769150234302,1 45665U 20035J   25268.82183355  .00002305  00000+0  17364-3 0  9997,2 45665  53.0543  86.7358 0001650  94.9143 265.2035 15.06392603293874
STARLINK-1451,45668,53.0539,0.0001515,15.06400283,546.16150040905,548.2598807592967,1 45668U 20035M   25268.69285464  .00003009  00000+0  22084-3 0  9996,2 45668  53.0539  87.6356 0001515  84.9171 275.1991 15.06400283293864
STARLINK-1452,45669,53.0451,0.0005704,15.21984514,495.9320983278694,503.778511949572,1 45669U 20035N   25268.76584055  .00055831  00000+0  24104-2 0  9997,2 45669  53.0451  72.8600 0005704 214.5295 145.5331 15.21984514294071
STARLINK-1453,45670,53.0557,0.0001319,15.06432823,546.1975217910413,548.0244022034158,1 45670U 20035P   25268.70294725  .00007650  00000+0  53145-3 0  9999,2 45670  53.0557  57.2753 0001319  86.1831 273.9309 15.06432823294179
STARLINK-1454,45671,53.0541,0.0001425,15.06398524,546.2292188552501,548.2029444835262,1 45671U 20035Q   25268.78128368  .00001394  00000+0  11244-3 0  9990,2 45671  53.0541  86.9213 0001425  88.6941 271.4211 15.06398524293869
STARLINK-1456,45673,53.0541,0.0001608,15.06392904,546.119706696395,548.3469057868815,1 45673U 20035S   25268.72968650  .00004386  00000+0  31324-3 0  9997,2 45673  53.0541  87.1535 0001608 130.3762 229.7368 15.06392904293876
STARLINK-1457,45674,53.0532,0.0001221,15.06398761,546.3697697748494,548.0609408200135,1 45674U 20035T   25269.20146921  .00001227  00000+0  10122-3 0  9995,2 45674  53.0532  85.0322 0001221  84.9353 275.1776 15.06398761293919
STARLINK-1458,45675,53.0537,0.0001378,15.06412352,546.2193932813598,548.1280089105821,1 45675U 20035U   25268.72598790  .00003687  00000+0  26620-3 0  9999,2 45675  53.0537  87.1679 0001378  95.7376 264.3770 15.06412352293839
STARLINK-1460,45676,53.0539,0.0001173,15.0640085,546.3966097316606,548.0212958921902,1 45676U 20035V   25269.22727643  .00000500  00000+0  52483-4 0  9995,2 45676  53.0539  84.9173 0001173  89.8984 270.2139 15.06400850293901
